[{"OBJECT_NAME":"JILIN-1 GAOFEN 2F","OBJECT_ID":"2021-097A","EPOCH":"2026-03-09T22:15:16.366464","MEAN_MOTION":15.06938169,"ECCENTRICITY":0.00186372,"INCLINATION":97.6538,"RA_OF_ASC_NODE":195.5232,"ARG_OF_PERICENTER":201.1609,"MEAN_ANOMALY":158.885,"EPHEMERIS_TYPE":0,"CLASSIFICATION_TYPE":"U","NORAD_CAT_ID":49338,"ELEMENT_SET_NO":999,"REV_AT_EPOCH":24136,"BSTAR":0.0003789548,"MEAN_MOTION_DOT":5.624e-5,"MEAN_MOTION_DDOT":0},{"OBJECT_NAME":"STARLINK-34736","OBJECT_ID":"2025-152E","EPOCH":"2026-03-09T14:05:49.149024","MEAN_MOTION":15.05658271,"ECCENTRICITY":0.0002331,"INCLINATION":97.6015,"RA_OF_ASC_NODE":285.4239,"ARG_OF_PERICENTER":67.6567,"MEAN_ANOMALY":292.4907,"EPHEMERIS_TYPE":0,"CLASSIFICATION_TYPE":"U","NORAD_CAT_ID":64846,"ELEMENT_SET_NO":999,"REV_AT_EPOCH":3540,"BSTAR":0.00032716,"MEAN_MOTION_DOT":4.664e-5,"MEAN_MOTION_DDOT":0}]
